HIMAWARI-8              
1 40267U 14060A   23332.91625638 -.00000267  00000+0  00000+0 0  9997
2 40267   0.0077 325.8177 0001060 328.4613 243.7699  1.00268689 33424
